DIRECTV 14              
1 40333U 14078B   26064.63477493  .00000000  00000+0  00000+0 0  9992
2 40333   0.0223 140.6418 0000595 348.2371 163.7954  1.00271102 41007
YAMAL 401               
1 40345U 14082A   26064.67238844 -.00000235  00000+0  00000+0 0  9990
2 40345   0.0106 139.5672 0000722 338.6357  17.1861  1.00273333 40880
ASTRA 2G                
1 40364U 14089A   26064.65667395  .00000000  00000+0  00000+0 0  9992
2 40364   0.0241  10.7878 0004475  19.7531  37.4393  1.00271677 40928
FENGYUN 2G              
1 40367U 14090A   26064.53164113 -.00000308  00000+0  00000+0 0  9996
2 40367   5.3770  74.0740 0001795 152.3753 227.8922  1.00274179 40966
INMARSAT 5-F2           
1 40384U 15005A   26064.50104767 -.00000293  00000+0  00000+0 0  9991
2 40384   0.0199 134.3302 0000309 107.1043  47.1250  1.00272082 39951
ABS-3A                  
1 40424U 15010A   26064.65392837 -.00000034  00000+0  00000+0 0  9998
2 40424   0.0117 154.2718 0001889 133.6209 107.9321  1.00270246 40338
EUTELSAT 115 WEST B     
1 40425U 15010B   26064.27892080 -.00000033  00000+0  00000+0 0  9991
2 40425   0.0290  16.3684 0000180  73.5386  58.6084  1.00272581 40356
EXPRESS-AM7             
1 40505U 15012A   26064.51985441  .00000143  00000+0  00000+0 0  9994
2 40505   0.0205 190.5300 0002951 142.4206  57.4704  1.00276260 39965
BEIDOU-3S IGSO-1S       
1 40549U 15019A   26064.60236146 -.00000165  00000+0  00000+0 0  9995
2 40549  49.3881 296.7093 0035816 190.5073 349.4480  1.00273608 40037
THOR 7                  
1 40613U 15022A   26064.65444836 -.00000016  00000+0  00000+0 0  9998
2 40613   0.0110 159.8598 0002632 187.6178  50.8317  1.00271736 39771
TURKMENALEM52E/MONACOSAT
1 40617U 15023A   26064.45095411  .00000096  00000+0  00000+0 0  9999
2 40617   0.0146 131.0008 0002927 224.4072  22.1559  1.00275311 39809
DIRECTV 15              
1 40663U 15026A   26064.63416826 -.00000109  00000+0  00000+0 0  9996
2 40663   0.0224 103.7211 0000470 108.8780  76.1752  1.00270077 39427
SKY MEXICO-1            
1 40664U 15026B   26064.42495398 -.00000242  00000+0  00000+0 0  9993
2 40664   0.0200 125.8533 0002250 238.8701 232.6041  1.00269501 39418
METEOSAT-11 (MSG-4)     
1 40732U 15034A   26064.65635504  .00000056  00000+0  00000+0 0  9990
2 40732   2.9407  71.6729 0001808 270.8696  66.5022  1.00266494  6174
STAR ONE C4             
1 40733U 15034B   26064.74991433 -.00000272  00000+0  00000+0 0  9998
2 40733   0.0401  22.9461 0002749 329.3690  11.1220  1.00272601 38975
WGS F7 (USA 263)        
1 40746U 15036A   26064.72891879  .00000011  00000+0  00000+0 0  9995
2 40746   0.0132 123.0001 0000183 198.1282 279.7534  1.00273262 38831
INTELSAT 34 (IS-34)     
1 40874U 15039A   26064.81581955  .00000000  00000+0  00000+0 0  9999
2 40874   0.0155 178.2365 0000514 270.4265 313.1021  1.00267560 38586
